NORAD_CAT_ID,OBJECT_NAME,OBJECT_TYPE,EPOCH,MEAN_MOTION,ECCENTRICITY,INCLINATION,RA_OF_ASC_NODE,ARG_OF_PERICENTER,MEAN_ANOMALY,BSTAR,MEAN_MOTION_DOT,MEAN_MOTION_DDOT,TLE_LINE0,TLE_LINE1,TLE_LINE2,SEMIMAJOR_AXIS,PERIOD,APOGEE,PERIGEE,DECAYED
56456.0,STARLINK-5995,PAYLOAD,2023-07-14 04:00:01,15.02004246,0.0003084,70.0004,69.0775,275.5381,247.1464,-0.077445,-0.00948948,0.0,0 STARLINK-5995,1 56456U 23064J   23195.16668981 -.00948948  00000-0 -77445-1 0  9998,2 56456  70.0004  69.0775 0003084 275.5381 247.1464 15.02004246 10372,6938.854,95.872,562.859,558.579,0.0
56456.0,STARLINK-5995,PAYLOAD,2023-07-15 06:00:02,14.99788299,0.0003146,70.0002,66.3353,270.3562,344.2819,-0.057257,-0.00663316,0.0,0 STARLINK-5995,1 56456U 23064J   23196.25002315 -.00663316  00000-0 -57257-1 0  9994,2 56456  70.0002  66.3353 0003146 270.3562 344.2819 14.99788299 10538,6945.687,96.014,569.737,565.367,0.0
56456.0,STARLINK-5995,PAYLOAD,2023-07-15 14:00:01,14.9927794,0.0003185,70.0004,65.4934,265.2826,348.2274,0.0034588,0.0004246,0.0,0 STARLINK-5995,1 56456U 23064J   23196.58334491  .00042460  00000-0  34588-2 0  9995,2 56456  70.0004  65.4934 0003185 265.2826 348.2274 14.99277940 10584,6947.263,96.046,571.341,566.915,0.0
56456.0,STARLINK-5995,PAYLOAD,2023-07-16 06:00:00,14.99316587,0.0003174,69.9999,63.8099,271.6815,339.1121,-0.0036909,-0.00044987,0.0,0 STARLINK-5995,1 56456U 23064J   23197.25001157 -.00044987  00000-0 -36909-2 0  9997,2 56456  69.9999  63.8099 0003174 271.6815 339.1121 14.99316587 10687,6947.144,96.044,571.214,566.804,0.0
56456.0,STARLINK-5995,PAYLOAD,2023-07-16 22:00:00,14.99297818,0.0003211,70.0,62.1262,271.9681,336.1174,-0.00011708,-1.526e-05,0.0,0 STARLINK-5995,1 56456U 23064J   23197.91667824 -.00001526  00000-0 -11708-3 0  9992,2 56456  70.0000  62.1262 0003211 271.9681 336.1174 14.99297818 10784,6947.202,96.045,571.297,566.836,0.0
56456.0,STARLINK-5995,PAYLOAD,2023-07-18 06:00:00,14.9930774,0.000327,69.9994,58.7586,268.2094,334.4824,-0.0035703,-0.00043519,0.0,0 STARLINK-5995,1 56456U 23064J   23199.25001157 -.00043519  00000-0 -35703-2 0  9990,2 56456  69.9994  58.7586 0003270 268.2094 334.4824 14.99307740 10986,6947.171,96.044,571.308,566.764,0.0
56456.0,STARLINK-5995,PAYLOAD,2023-07-18 22:00:00,14.99291284,0.0003336,69.9996,57.0748,267.5578,332.4119,0.0005574,6.731e-05,0.0,0 STARLINK-5995,1 56456U 23064J   23199.91667824  .00006731  00000-0  55740-3 0  9999,2 56456  69.9996  57.0748 0003336 267.5578 332.4119 14.99291284 11084,6947.222,96.045,571.404,566.769,0.0
56456.0,STARLINK-5995,PAYLOAD,2023-07-19 00:08:09,14.99287488,0.0002962,69.9989,56.8501,264.8081,95.2741,4.1861e-05,4.18e-06,0.0,0 STARLINK-5995,1 56456U 23064J   23200.00566137  .00000418  00000-0  41861-4 0  9993,2 56456  69.9989  56.8501 0002962 264.8081  95.2741 14.99287488 11102,6947.234,96.046,571.156,567.041,0.0
56456.0,STARLINK-5995,PAYLOAD,2023-07-21 01:46:22,14.99303319,0.0003233,69.9986,51.6277,263.8546,96.2246,9.3826e-05,1.054e-05,0.0,0 STARLINK-5995,1 56456U 23064J   23202.07387067  .00001054  00000-0  93826-4 0  9990,2 56456  69.9986  51.6277 0003233 263.8546  96.2246 14.99303319 11416,6947.185,96.045,571.296,566.804,0.0
56456.0,STARLINK-5995,PAYLOAD,2023-07-23 17:49:15,14.99299346,0.000298,69.9992,44.8886,261.4649,98.6173,-1.5704e-05,-2.86e-06,0.0,0 STARLINK-5995,1 56456U 23064J   23204.74254540 -.00000286  00000-0 -15704-4 0  9992,2 56456  69.9992  44.8886 0002980 261.4649  98.6173 14.99299346 11452,6947.197,96.045,571.132,566.992,0.0
56456.0,STARLINK-5995,PAYLOAD,2023-07-25 13:03:12,14.9930031,0.0003128,69.9987,40.3338,290.3232,69.7591,-2.0792e-06,-1.19e-06,0.0,0 STARLINK-5995,1 56456U 23064J   23206.54389982 -.00000119  00000-0 -20792-5 0  9990,2 56456  69.9987  40.3338 0003128 290.3232  69.7591 14.99300310 11720,6947.194,96.045,571.232,566.886,0.0
56456.0,STARLINK-5995,PAYLOAD,2023-07-26 00:15:43,14.99300605,0.0003369,69.9982,39.1586,268.4575,91.6199,2.136e-05,1.67e-06,0.0,0 STARLINK-5995,1 56456U 23064J   23207.01091473  .00000167  00000-0  21360-4 0  9990,2 56456  69.9982  39.1586 0003369 268.4575  91.6199 14.99300605 11791,6947.193,96.045,571.399,566.717,0.0
56456.0,STARLINK-5995,PAYLOAD,2023-07-27 00:16:47,14.99310511,0.0003444,69.9982,36.6315,268.8774,91.1991,2.298e-05,1.87e-06,0.0,0 STARLINK-5995,1 56456U 23064J   23208.01165708  .00000187  00000-0  22980-4 0  9995,2 56456  69.9982  36.6315 0003444 268.8774  91.1991 14.99310511 12302,6947.162,96.044,571.42,566.635,0.0
56456.0,STARLINK-5995,PAYLOAD,2023-07-27 11:29:18,14.99298934,0.0002687,70.0014,35.4554,267.5865,92.4987,1.3172e-05,6.7e-07,0.0,0 STARLINK-5995,1 56456U 23064J   23208.47868322  .00000067  00000-0  13172-4 0  9997,2 56456  70.0014  35.4554 0002687 267.5865  92.4987 14.99298934 12378,6947.198,96.045,570.93,567.196,0.0
56456.0,STARLINK-5995,PAYLOAD,2023-07-27 19:29:40,14.99291063,0.0003058,69.9992,34.6108,262.7072,97.374,-7.0747e-05,-9.59e-06,0.0,0 STARLINK-5995,1 56456U 23064J   23208.81227502 -.00000959  00000-0 -70747-4 0  9997,2 56456  69.9992  34.6108 0003058 262.7072  97.3740 14.99291063 12429,6947.222,96.045,571.212,566.963,0.0
56456.0,STARLINK-5995,PAYLOAD,2023-07-28 05:06:06,14.99298758,0.0003362,69.9986,33.5989,264.2445,95.8331,-3.4653e-05,-5.18e-06,0.0,0 STARLINK-5995,1 56456U 23064J   23209.21257046 -.00000518  00000-0 -34653-4 0  9995,2 56456  69.9986  33.5989 0003362 264.2445  95.8331 14.99298758 12489,6947.199,96.045,571.399,566.728,0.0
56456.0,STARLINK-5995,PAYLOAD,2023-07-28 11:30:23,14.99300475,0.0003393,69.9993,32.9248,264.7224,95.3548,-2.9238e-05,-4.52e-06,0.0,0 STARLINK-5995,1 56456U 23064J   23209.47943644 -.00000452  00000-0 -29238-4 0  9999,2 56456  69.9993  32.9248 0003393 264.7224  95.3548 14.99300475 12162,6947.193,96.045,571.416,566.701,0.0
56456.0,STARLINK-5995,PAYLOAD,2023-07-28 22:43:34,14.98821477,0.0002668,69.9998,31.7488,269.0643,91.0211,-0.0050755,-0.00060899,0.0,0 STARLINK-5995,1 56456U 23064J   23209.94692710 -.00060899  00000-0 -50755-2 0  9993,2 56456  69.9998  31.7488 0002668 269.0643  91.0211 14.98821477 12593,6948.673,96.075,572.392,568.685,0.0
56456.0,STARLINK-5995,PAYLOAD,2023-07-29 09:56:21,14.98738815,0.0003303,69.9973,30.5678,266.1405,93.9376,-0.0051944,-0.00062182,0.0,0 STARLINK-5995,1 56456U 23064J   23210.41414046 -.00062182  00000-0 -51944-2 0  9999,2 56456  69.9973  30.5678 0003303 266.1405  93.9376 14.98738815 12669,6948.929,96.081,573.089,568.499,0.0
56456.0,STARLINK-5995,PAYLOAD,2023-07-30 17:58:43,14.98511416,0.0003229,69.9986,27.201,275.2824,84.7966,-0.0028952,-0.00034631,0.0,0 STARLINK-5995,1 56456U 23064J   23211.74911476 -.00034631  00000-0 -28952-2 0  9996,2 56456  69.9986  27.2010 0003229 275.2824  84.7966 14.98511416 12860,6949.632,96.095,573.741,569.253,0.0
56456.0,STARLINK-5995,PAYLOAD,2023-07-31 06:00:00,14.98308033,0.0003368,70.0,25.9371,268.8882,272.2623,0.0020809,0.0002481,0.0,0 STARLINK-5995,1 56456U 23064J   23212.25001157  .00024810  00000-0  20809-2 0  9998,2 56456  70.0000  25.9371 0003368 268.8882 272.2623 14.98308033 12932,6950.261,96.108,574.467,569.785,0.0
56456.0,STARLINK-5995,PAYLOAD,2023-07-31 22:49:08,14.98332412,0.0003272,69.9988,24.1706,270.8028,89.2756,2.0017e-05,1.46e-06,0.0,0 STARLINK-5995,1 56456U 23064J   23212.95079199  .00000146  00000-0  20017-4 0  9995,2 56456  69.9988  24.1706 0003272 270.8028  89.2756 14.98332412 13040,6950.185,96.107,574.325,569.776,0.0
56456.0,STARLINK-5995,PAYLOAD,2023-08-02 00:00:00,14.98337782,0.0003381,70.0002,21.5238,271.9864,345.9438,-0.00094396,-0.00011341,0.0,0 STARLINK-5995,1 56456U 23064J   23214.00001157 -.00011341  00000-0 -94396-3 0  9993,2 56456  70.0002  21.5238 0003381 271.9864 345.9438 14.98337782 13192,6950.169,96.106,574.384,569.684,0.0
56456.0,STARLINK-5995,PAYLOAD,2023-08-02 18:04:46,14.9833304,0.0003194,69.9992,19.6253,269.8178,90.2615,4.631e-05,4.6e-06,0.0,0 STARLINK-5995,1 56456U 23064J   23214.75331050  .00000460  00000-0  46310-4 0  9995,2 56456  69.9992  19.6253 0003194 269.8178  90.2615 14.98333040 13312,6950.183,96.107,574.268,569.829,0.0
56456.0,STARLINK-5995,PAYLOAD,2023-08-03 10:06:07,14.98326829,0.0003105,69.9995,17.9419,270.1612,89.9191,-2.7746e-05,-4.24e-06,0.0,0 STARLINK-5995,1 56456U 23064J   23215.42091560 -.00000424  00000-0 -27746-4 0  9993,2 56456  69.9995  17.9419 0003105 270.1612  89.9191 14.98326829 13412,6950.203,96.107,574.226,569.91,0.0
56456.0,STARLINK-5995,PAYLOAD,2023-08-04 10:08:07,14.98330934,0.0002897,70.0002,15.4176,264.9335,95.1493,-2.1005e-05,-3.44e-06,0.0,0 STARLINK-5995,1 56456U 23064J   23216.42231337 -.00000344  00000-0 -21005-4 0  9995,2 56456  70.0002  15.4176 0002897 264.9335  95.1493 14.98330934 13569,6950.19,96.107,574.068,570.042,0.0
56456.0,STARLINK-5995,PAYLOAD,2023-08-05 10:10:08,14.98329479,0.0003114,69.9998,12.8924,269.424,90.6562,4.3498e-05,4.26e-06,0.0,0 STARLINK-5995,1 56456U 23064J   23217.42371189  .00000426  00000-0  43498-4 0  9995,2 56456  69.9998  12.8924 0003114 269.4240  90.6562 14.98329479 13716,6950.195,96.107,574.224,569.895,0.0
56456.0,STARLINK-5995,PAYLOAD,2023-08-05 19:46:56,14.98334675,0.0003048,69.9999,11.8824,268.5618,91.5192,9.7015e-05,1.065e-05,0.0,0 STARLINK-5995,1 56456U 23064J   23217.82426658  .00001065  00000-0  97015-4 0  9995,2 56456  69.9999  11.8824 0003048 268.5618  91.5192 14.98334675 13779,6950.178,96.107,574.162,569.925,0.0
56456.0,STARLINK-5995,PAYLOAD,2023-08-06 10:12:10,14.98321704,0.0002587,70.0014,10.3696,252.9768,107.1107,-4.3223e-05,-6.08e-06,0.0,0 STARLINK-5995,1 56456U 23064J   23218.42511929 -.00000608  00000-0 -43223-4 0  9994,2 56456  70.0014  10.3696 0002587 252.9768 107.1107 14.98321704 13860,6950.219,96.108,573.882,570.286,0.0
56456.0,STARLINK-5995,PAYLOAD,2023-08-06 18:12:51,14.98318546,0.0003214,69.9998,9.5256,268.9258,91.1533,-0.00010254,-1.316e-05,0.0,0 STARLINK-5995,1 56456U 23064J   23218.75892517 -.00001316  00000-0 -10254-3 0  9999,2 56456  69.9998   9.5256 0003214 268.9258  91.1533 14.98318546 13910,6950.228,96.108,574.327,569.86,0.0
